CCSDS_OMM_VERS = 2.0
CREATION_DATE  = 
ORIGINATOR     = 

OBJECT_NAME    = STARLINK-35622
OBJECT_ID      = 2025-236T
CENTER_NAME    = EARTH
REF_FRAME      = TEME
TIME_SYSTEM    = UTC
MEAN_ELEMENT_THEORY = SGP/SGP4

EPOCH          = 2025-11-06T12:39:51.765408
MEAN_MOTION    = 15.74307789
ECCENTRICITY   = .0001262
INCLINATION    = 53.1573
RA_OF_ASC_NODE = 319.8333
ARG_OF_PERICENTER = 103.7297
MEAN_ANOMALY   = 256.3864

EPHEMERIS_TYPE = 0
CLASSIFICATION_TYPE = U
NORAD_CAT_ID   = 66103
ELEMENT_SET_NO = 999
REV_AT_EPOCH   = 403
BSTAR          = .19724E-2
MEAN_MOTION_DOT = .300309E-2
MEAN_MOTION_DDOT = 0

CCSDS_OMM_VERS = 2.0
CREATION_DATE  = 
ORIGINATOR     = 

OBJECT_NAME    = STARLINK-35452
OBJECT_ID      = 2025-236U
CENTER_NAME    = EARTH
REF_FRAME      = TEME
TIME_SYSTEM    = UTC
MEAN_ELEMENT_THEORY = SGP/SGP4

EPOCH          = 2025-11-06T15:43:10.800768
MEAN_MOTION    = 15.74248690
ECCENTRICITY   = .0001206
INCLINATION    = 53.1573
RA_OF_ASC_NODE = 319.2050
ARG_OF_PERICENTER = 76.9554
MEAN_ANOMALY   = 283.1600

EPHEMERIS_TYPE = 0
CLASSIFICATION_TYPE = U
NORAD_CAT_ID   = 66104
ELEMENT_SET_NO = 999
REV_AT_EPOCH   = 405
BSTAR          = .96641E-3
MEAN_MOTION_DOT = .143713E-2
MEAN_MOTION_DDOT = 0

CCSDS_OMM_VERS = 2.0
CREATION_DATE  = 
ORIGINATOR     = 

OBJECT_NAME    = STARLINK-35561
OBJECT_ID      = 2025-236V
CENTER_NAME    = EARTH
REF_FRAME      = TEME
TIME_SYSTEM    = UTC
MEAN_ELEMENT_THEORY = SGP/SGP4

EPOCH          = 2025-11-06T12:39:21.523680
MEAN_MOTION    = 15.74304932
ECCENTRICITY   = .0001267
INCLINATION    = 53.1574
RA_OF_ASC_NODE = 319.8309
ARG_OF_PERICENTER = 93.7392
MEAN_ANOMALY   = 266.3773

EPHEMERIS_TYPE = 0
CLASSIFICATION_TYPE = U
NORAD_CAT_ID   = 66105
ELEMENT_SET_NO = 999
REV_AT_EPOCH   = 397
BSTAR          = .17202E-2
MEAN_MOTION_DOT = .260543E-2
MEAN_MOTION_DDOT = 0

CCSDS_OMM_VERS = 2.0
CREATION_DATE  = 
ORIGINATOR     = 

OBJECT_NAME    = STARLINK-35584
OBJECT_ID      = 2025-236W
CENTER_NAME    = EARTH
REF_FRAME      = TEME
TIME_SYSTEM    = UTC
MEAN_ELEMENT_THEORY = SGP/SGP4

EPOCH          = 2025-11-06T12:38:52.551168
MEAN_MOTION    = 15.74298697
ECCENTRICITY   = .0001775
INCLINATION    = 53.1573
RA_OF_ASC_NODE = 319.8276
ARG_OF_PERICENTER = 95.9962
MEAN_ANOMALY   = 264.1260

EPHEMERIS_TYPE = 0
CLASSIFICATION_TYPE = U
NORAD_CAT_ID   = 66106
ELEMENT_SET_NO = 999
REV_AT_EPOCH   = 403
BSTAR          = .17431E-2
MEAN_MOTION_DOT = .264069E-2
MEAN_MOTION_DDOT = 0

CCSDS_OMM_VERS = 2.0
CREATION_DATE  = 
ORIGINATOR     = 

OBJECT_NAME    = STARLINK-35593
OBJECT_ID      = 2025-236X
CENTER_NAME    = EARTH
REF_FRAME      = TEME
TIME_SYSTEM    = UTC
MEAN_ELEMENT_THEORY = SGP/SGP4

EPOCH          = 2025-11-06T12:38:22.989408
MEAN_MOTION    = 15.74302380
ECCENTRICITY   = .0001001
INCLINATION    = 53.1574
RA_OF_ASC_NODE = 319.8257
ARG_OF_PERICENTER = 113.1729
MEAN_ANOMALY   = 246.9396

EPHEMERIS_TYPE = 0
CLASSIFICATION_TYPE = U
NORAD_CAT_ID   = 66107
ELEMENT_SET_NO = 999
REV_AT_EPOCH   = 403
BSTAR          = .16095E-2
MEAN_MOTION_DOT = .243202E-2
MEAN_MOTION_DDOT = 0

CCSDS_OMM_VERS = 2.0
CREATION_DATE  = 
ORIGINATOR     = 

OBJECT_NAME    = STARLINK-35590
OBJECT_ID      = 2025-236Y
CENTER_NAME    = EARTH
REF_FRAME      = TEME
TIME_SYSTEM    = UTC
MEAN_ELEMENT_THEORY = SGP/SGP4

EPOCH          = 2025-11-06T12:37:24.514752
MEAN_MOTION    = 15.74290973
ECCENTRICITY   = .0000859
INCLINATION    = 53.1575
RA_OF_ASC_NODE = 319.8212
ARG_OF_PERICENTER = 111.2780
MEAN_ANOMALY   = 248.8332

EPHEMERIS_TYPE = 0
CLASSIFICATION_TYPE = U
NORAD_CAT_ID   = 66108
ELEMENT_SET_NO = 999
REV_AT_EPOCH   = 397
BSTAR          = .13178E-2
MEAN_MOTION_DOT = .197831E-2
MEAN_MOTION_DDOT = 0

CCSDS_OMM_VERS = 2.0
CREATION_DATE  = 
ORIGINATOR     = 

OBJECT_NAME    = STARLINK-35545
OBJECT_ID      = 2025-236Z
CENTER_NAME    = EARTH
REF_FRAME      = TEME
TIME_SYSTEM    = UTC
MEAN_ELEMENT_THEORY = SGP/SGP4

EPOCH          = 2025-11-06T12:37:53.926176
MEAN_MOTION    = 15.74283316
ECCENTRICITY   = .0000981
INCLINATION    = 53.1574
RA_OF_ASC_NODE = 319.8235
ARG_OF_PERICENTER = 95.5404
MEAN_ANOMALY   = 264.5728

EPHEMERIS_TYPE = 0
CLASSIFICATION_TYPE = U
NORAD_CAT_ID   = 66109
ELEMENT_SET_NO = 999
REV_AT_EPOCH   = 403
BSTAR          = .14211E-2
MEAN_MOTION_DOT = .213728E-2
MEAN_MOTION_DDOT = 0

CCSDS_OMM_VERS = 2.0
CREATION_DATE  = 
ORIGINATOR     = 

OBJECT_NAME    = STARLINK-35427
OBJECT_ID      = 2025-236AA
CENTER_NAME    = EARTH
REF_FRAME      = TEME
TIME_SYSTEM    = UTC
MEAN_ELEMENT_THEORY = SGP/SGP4

EPOCH          = 2025-11-06T12:36:55.429920
MEAN_MOTION    = 15.74323908
ECCENTRICITY   = .0001067
INCLINATION    = 53.1573
RA_OF_ASC_NODE = 319.8179
ARG_OF_PERICENTER = 80.6965
MEAN_ANOMALY   = 279.4176

EPHEMERIS_TYPE = 0
CLASSIFICATION_TYPE = U
NORAD_CAT_ID   = 66110
ELEMENT_SET_NO = 999
REV_AT_EPOCH   = 403
BSTAR          = .20192E-2
MEAN_MOTION_DOT = .307945E-2
MEAN_MOTION_DDOT = 0

CCSDS_OMM_VERS = 2.0
CREATION_DATE  = 
ORIGINATOR     = 

OBJECT_NAME    = STARLINK-35574
OBJECT_ID      = 2025-236AB
CENTER_NAME    = EARTH
REF_FRAME      = TEME
TIME_SYSTEM    = UTC
MEAN_ELEMENT_THEORY = SGP/SGP4

EPOCH          = 2025-11-06T15:39:17.220096
MEAN_MOTION    = 15.74302521
ECCENTRICITY   = .0001538
INCLINATION    = 53.1573
RA_OF_ASC_NODE = 319.1856
ARG_OF_PERICENTER = 50.8371
MEAN_ANOMALY   = 309.2785

EPHEMERIS_TYPE = 0
CLASSIFICATION_TYPE = U
NORAD_CAT_ID   = 66111
ELEMENT_SET_NO = 999
REV_AT_EPOCH   = 399
BSTAR          = .18336E-2
MEAN_MOTION_DOT = .27833E-2
MEAN_MOTION_DDOT = 0

CCSDS_OMM_VERS = 2.0
CREATION_DATE  = 
ORIGINATOR     = 

OBJECT_NAME    = STARLINK-35531
OBJECT_ID      = 2025-236AC
CENTER_NAME    = EARTH
REF_FRAME      = TEME
TIME_SYSTEM    = UTC
MEAN_ELEMENT_THEORY = SGP/SGP4

EPOCH          = 2025-11-06T12:35:27.848832
MEAN_MOTION    = 15.74283888
ECCENTRICITY   = .000116
INCLINATION    = 53.1576
RA_OF_ASC_NODE = 319.8114
ARG_OF_PERICENTER = 87.5888
MEAN_ANOMALY   = 272.5265

EPHEMERIS_TYPE = 0
CLASSIFICATION_TYPE = U
NORAD_CAT_ID   = 66112
ELEMENT_SET_NO = 999
REV_AT_EPOCH   = 403
BSTAR          = .1351E-2
MEAN_MOTION_DOT = .202891E-2
MEAN_MOTION_DDOT = 0

CCSDS_OMM_VERS = 2.0
CREATION_DATE  = 
ORIGINATOR     = 

OBJECT_NAME    = STARLINK-35491
OBJECT_ID      = 2025-236AD
CENTER_NAME    = EARTH
REF_FRAME      = TEME
TIME_SYSTEM    = UTC
MEAN_ELEMENT_THEORY = SGP/SGP4

EPOCH          = 2025-11-06T12:35:57.172992
MEAN_MOTION    = 15.74287419
ECCENTRICITY   = .0001444
INCLINATION    = 53.1576
RA_OF_ASC_NODE = 319.8138
ARG_OF_PERICENTER = 81.4438
MEAN_ANOMALY   = 278.6745

EPHEMERIS_TYPE = 0
CLASSIFICATION_TYPE = U
NORAD_CAT_ID   = 66113
ELEMENT_SET_NO = 999
REV_AT_EPOCH   = 403
BSTAR          = .14422E-2
MEAN_MOTION_DOT = .21704E-2
MEAN_MOTION_DDOT = 0

CCSDS_OMM_VERS = 2.0
CREATION_DATE  = 
ORIGINATOR     = 

OBJECT_NAME    = STARLINK-35496
OBJECT_ID      = 2025-237A
CENTER_NAME    = EARTH
REF_FRAME      = TEME
TIME_SYSTEM    = UTC
MEAN_ELEMENT_THEORY = SGP/SGP4

EPOCH          = 2025-11-06T18:00:00.998784
MEAN_MOTION    = 15.74153897
ECCENTRICITY   = .0001364
INCLINATION    = 53.1598
RA_OF_ASC_NODE = 258.4600
ARG_OF_PERICENTER = 69.0409
MEAN_ANOMALY   = 99.0665

EPHEMERIS_TYPE = 0
CLASSIFICATION_TYPE = U
NORAD_CAT_ID   = 66114
ELEMENT_SET_NO = 999
REV_AT_EPOCH   = 369
BSTAR          = -.36431E-3
MEAN_MOTION_DOT = -.53565E-3
MEAN_MOTION_DDOT = 0

